[{"OBJECT_NAME":"STARLINK-30492","OBJECT_ID":"2023-147J","EPOCH":"2026-03-09T22:00:01.999584","MEAN_MOTION":15.24234925,"ECCENTRICITY":0.00017232,"INCLINATION":43.0012,"RA_OF_ASC_NODE":323.9961,"ARG_OF_PERICENTER":274.4276,"MEAN_ANOMALY":21.8813,"EPHEMERIS_TYPE":0,"CLASSIFICATION_TYPE":"U","NORAD_CAT_ID":57921,"ELEMENT_SET_NO":999,"REV_AT_EPOCH":572,"BSTAR":0.041747131,"MEAN_MOTION_DOT":0.01125465,"MEAN_MOTION_DDOT":0},{"OBJECT_NAME":"FLOCK 4BE-32","OBJECT_ID":"2024-149AF","EPOCH":"2026-03-09T19:11:59.009856","MEAN_MOTION":15.38487968,"ECCENTRICITY":0.0002762,"INCLINATION":97.376,"RA_OF_ASC_NODE":151.9037,"ARG_OF_PERICENTER":261.0637,"MEAN_ANOMALY":99.0296,"EPHEMERIS_TYPE":0,"CLASSIFICATION_TYPE":"U","NORAD_CAT_ID":60497,"ELEMENT_SET_NO":999,"REV_AT_EPOCH":8703,"BSTAR":0.00058115352,"MEAN_MOTION_DOT":0.00022026,"MEAN_MOTION_DDOT":0}]
